HULIANWANG DIGUI-107    
1 66917U 25285C   25355.73932097  .00000008  00000+0  10090-3 0  9991
2 66917  50.0026  80.5763 0007498 315.5278  44.5023 14.03663234  2172
HULIANWANG DIGUI-108    
1 66918U 25285D   25355.88098100  .00000019  00000+0  10780-3 0  9994
2 66918  50.0049  79.9968 0006639 310.6088  49.4238 14.03602331  2193
HULIANWANG DIGUI-109    
1 66919U 25285E   25355.87946661  .00000034  00000+0  11740-3 0  9992
2 66919  50.0073  79.9937 0007893 322.9313  37.1046 14.03726540  2197
HULIANWANG DIGUI-110    
1 66920U 25285F   25355.87864171  .00000016  00000+0  10608-3 0  9991
2 66920  50.0106  79.9958 0005592 320.0953  39.9540 14.03682739  2192
HULIANWANG DIGUI-111    
1 66921U 25285G   25355.87779513  .00000018  00000+0  10752-3 0  9999
2 66921  50.0141  79.9945 0006677 323.8471  36.1982 14.03632455  2198
HULIANWANG DIGUI-112    
1 66922U 25285H   25355.73436706  .00000037  00000+0  11936-3 0  9995
2 66922  50.0094  80.5616 0006496 334.0497  26.0081 14.03662270  2174
HULIANWANG DIGUI-113    
1 66923U 25285J   25355.73321863  .00000022  00000+0  10962-3 0  9995
2 66923  50.0093  80.5570 0005107 328.5681  31.4917 14.03700199  2175
CZ-8A R/B               
1 66924U 25285K   25355.67282698 -.00000025  00000+0  49813-4 0  9993
2 66924  50.0080  78.1289 0119259 138.2364 222.7729 14.30505087  2209
STARLINK-35945          
1 66925U 25286A   25355.83335647 -.00003370  00000+0 -18722-4 0  9998
2 66925  53.1585   4.8563 0001435  87.7673 129.2526 15.74184062  3451
STARLINK-35942          
1 66926U 25286B   25355.83335647 -.00444452  00000+0 -31690-2 0  9996
2 66926  53.1583   4.8481 0001189 128.6306  92.1438 15.74362809  3450
STARLINK-35943          
1 66927U 25286C   25355.83335647 -.00474680  00000+0 -33994-2 0  9992
2 66927  53.1585   4.8445 0001244 123.7715  98.9832 15.74344663  3455
STARLINK-35944          
1 66928U 25286D   25355.83335647 -.00469291  00000+0 -33559-2 0  9992
2 66928  53.1584   4.8524 0000816 139.0777  79.7872 15.74365946  3453
