CCSDS_OMM_VERS = 2.0
CREATION_DATE  = 
ORIGINATOR     = 

OBJECT_NAME    = HULIANWANG DIGUI-107
OBJECT_ID      = 2025-285C
CENTER_NAME    = EARTH
REF_FRAME      = TEME
TIME_SYSTEM    = UTC
MEAN_ELEMENT_THEORY = SGP/SGP4

EPOCH          = 2025-12-21T17:44:37.331808
MEAN_MOTION    = 14.03663234
ECCENTRICITY   = .0007498
INCLINATION    = 50.0026
RA_OF_ASC_NODE = 80.5763
ARG_OF_PERICENTER = 315.5278
MEAN_ANOMALY   = 44.5023

EPHEMERIS_TYPE = 0
CLASSIFICATION_TYPE = U
NORAD_CAT_ID   = 66917
ELEMENT_SET_NO = 999
REV_AT_EPOCH   = 217
BSTAR          = .1009E-3
MEAN_MOTION_DOT = .8E-7
MEAN_MOTION_DDOT = 0

CCSDS_OMM_VERS = 2.0
CREATION_DATE  = 
ORIGINATOR     = 

OBJECT_NAME    = HULIANWANG DIGUI-108
OBJECT_ID      = 2025-285D
CENTER_NAME    = EARTH
REF_FRAME      = TEME
TIME_SYSTEM    = UTC
MEAN_ELEMENT_THEORY = SGP/SGP4

EPOCH          = 2025-12-21T21:08:36.758400
MEAN_MOTION    = 14.03602331
ECCENTRICITY   = .0006639
INCLINATION    = 50.0049
RA_OF_ASC_NODE = 79.9968
ARG_OF_PERICENTER = 310.6088
MEAN_ANOMALY   = 49.4238

EPHEMERIS_TYPE = 0
CLASSIFICATION_TYPE = U
NORAD_CAT_ID   = 66918
ELEMENT_SET_NO = 999
REV_AT_EPOCH   = 219
BSTAR          = .1078E-3
MEAN_MOTION_DOT = .19E-6
MEAN_MOTION_DDOT = 0

CCSDS_OMM_VERS = 2.0
CREATION_DATE  = 
ORIGINATOR     = 

OBJECT_NAME    = HULIANWANG DIGUI-109
OBJECT_ID      = 2025-285E
CENTER_NAME    = EARTH
REF_FRAME      = TEME
TIME_SYSTEM    = UTC
MEAN_ELEMENT_THEORY = SGP/SGP4

EPOCH          = 2025-12-21T21:06:25.915104
MEAN_MOTION    = 14.03726540
ECCENTRICITY   = .0007893
INCLINATION    = 50.0073
RA_OF_ASC_NODE = 79.9937
ARG_OF_PERICENTER = 322.9313
MEAN_ANOMALY   = 37.1046

EPHEMERIS_TYPE = 0
CLASSIFICATION_TYPE = U
NORAD_CAT_ID   = 66919
ELEMENT_SET_NO = 999
REV_AT_EPOCH   = 219
BSTAR          = .1174E-3
MEAN_MOTION_DOT = .34E-6
MEAN_MOTION_DDOT = 0

CCSDS_OMM_VERS = 2.0
CREATION_DATE  = 
ORIGINATOR     = 

OBJECT_NAME    = HULIANWANG DIGUI-110
OBJECT_ID      = 2025-285F
CENTER_NAME    = EARTH
REF_FRAME      = TEME
TIME_SYSTEM    = UTC
MEAN_ELEMENT_THEORY = SGP/SGP4

EPOCH          = 2025-12-21T21:05:14.643744
MEAN_MOTION    = 14.03682739
ECCENTRICITY   = .0005592
INCLINATION    = 50.0106
RA_OF_ASC_NODE = 79.9958
ARG_OF_PERICENTER = 320.0953
MEAN_ANOMALY   = 39.9540

EPHEMERIS_TYPE = 0
CLASSIFICATION_TYPE = U
NORAD_CAT_ID   = 66920
ELEMENT_SET_NO = 999
REV_AT_EPOCH   = 219
BSTAR          = .10608E-3
MEAN_MOTION_DOT = .16E-6
MEAN_MOTION_DDOT = 0

CCSDS_OMM_VERS = 2.0
CREATION_DATE  = 
ORIGINATOR     = 

OBJECT_NAME    = HULIANWANG DIGUI-111
OBJECT_ID      = 2025-285G
CENTER_NAME    = EARTH
REF_FRAME      = TEME
TIME_SYSTEM    = UTC
MEAN_ELEMENT_THEORY = SGP/SGP4

EPOCH          = 2025-12-21T21:04:01.499232
MEAN_MOTION    = 14.03632455
ECCENTRICITY   = .0006677
INCLINATION    = 50.0141
RA_OF_ASC_NODE = 79.9945
ARG_OF_PERICENTER = 323.8471
MEAN_ANOMALY   = 36.1982

EPHEMERIS_TYPE = 0
CLASSIFICATION_TYPE = U
NORAD_CAT_ID   = 66921
ELEMENT_SET_NO = 999
REV_AT_EPOCH   = 219
BSTAR          = .10752E-3
MEAN_MOTION_DOT = .18E-6
MEAN_MOTION_DDOT = 0

CCSDS_OMM_VERS = 2.0
CREATION_DATE  = 
ORIGINATOR     = 

OBJECT_NAME    = HULIANWANG DIGUI-112
OBJECT_ID      = 2025-285H
CENTER_NAME    = EARTH
REF_FRAME      = TEME
TIME_SYSTEM    = UTC
MEAN_ELEMENT_THEORY = SGP/SGP4

EPOCH          = 2025-12-21T17:37:29.313984
MEAN_MOTION    = 14.03662270
ECCENTRICITY   = .0006496
INCLINATION    = 50.0094
RA_OF_ASC_NODE = 80.5616
ARG_OF_PERICENTER = 334.0497
MEAN_ANOMALY   = 26.0081

EPHEMERIS_TYPE = 0
CLASSIFICATION_TYPE = U
NORAD_CAT_ID   = 66922
ELEMENT_SET_NO = 999
REV_AT_EPOCH   = 217
BSTAR          = .11936E-3
MEAN_MOTION_DOT = .37E-6
MEAN_MOTION_DDOT = 0

CCSDS_OMM_VERS = 2.0
CREATION_DATE  = 
ORIGINATOR     = 

OBJECT_NAME    = HULIANWANG DIGUI-113
OBJECT_ID      = 2025-285J
CENTER_NAME    = EARTH
REF_FRAME      = TEME
TIME_SYSTEM    = UTC
MEAN_ELEMENT_THEORY = SGP/SGP4

EPOCH          = 2025-12-21T17:35:50.089632
MEAN_MOTION    = 14.03700199
ECCENTRICITY   = .0005107
INCLINATION    = 50.0093
RA_OF_ASC_NODE = 80.5570
ARG_OF_PERICENTER = 328.5681
MEAN_ANOMALY   = 31.4917

EPHEMERIS_TYPE = 0
CLASSIFICATION_TYPE = U
NORAD_CAT_ID   = 66923
ELEMENT_SET_NO = 999
REV_AT_EPOCH   = 217
BSTAR          = .10962E-3
MEAN_MOTION_DOT = .22E-6
MEAN_MOTION_DDOT = 0

CCSDS_OMM_VERS = 2.0
CREATION_DATE  = 
ORIGINATOR     = 

OBJECT_NAME    = CZ-8A R/B
OBJECT_ID      = 2025-285K
CENTER_NAME    = EARTH
REF_FRAME      = TEME
TIME_SYSTEM    = UTC
MEAN_ELEMENT_THEORY = SGP/SGP4

EPOCH          = 2025-12-21T16:08:52.251072
MEAN_MOTION    = 14.30505087
ECCENTRICITY   = .0119259
INCLINATION    = 50.0080
RA_OF_ASC_NODE = 78.1289
ARG_OF_PERICENTER = 138.2364
MEAN_ANOMALY   = 222.7729

EPHEMERIS_TYPE = 0
CLASSIFICATION_TYPE = U
NORAD_CAT_ID   = 66924
ELEMENT_SET_NO = 999
REV_AT_EPOCH   = 220
BSTAR          = .49813E-4
MEAN_MOTION_DOT = -.25E-6
MEAN_MOTION_DDOT = 0

CCSDS_OMM_VERS = 2.0
CREATION_DATE  = 
ORIGINATOR     = 

OBJECT_NAME    = STARLINK-35945
OBJECT_ID      = 2025-286A
CENTER_NAME    = EARTH
REF_FRAME      = TEME
TIME_SYSTEM    = UTC
MEAN_ELEMENT_THEORY = SGP/SGP4

EPOCH          = 2025-12-21T20:00:01.999008
MEAN_MOTION    = 15.74184062
ECCENTRICITY   = .0001435
INCLINATION    = 53.1585
RA_OF_ASC_NODE = 4.8563
ARG_OF_PERICENTER = 87.7673
MEAN_ANOMALY   = 129.2526

EPHEMERIS_TYPE = 0
CLASSIFICATION_TYPE = U
NORAD_CAT_ID   = 66925
ELEMENT_SET_NO = 999
REV_AT_EPOCH   = 345
BSTAR          = -.18722E-4
MEAN_MOTION_DOT = -.337E-4
MEAN_MOTION_DDOT = 0

CCSDS_OMM_VERS = 2.0
CREATION_DATE  = 
ORIGINATOR     = 

OBJECT_NAME    = STARLINK-35942
OBJECT_ID      = 2025-286B
CENTER_NAME    = EARTH
REF_FRAME      = TEME
TIME_SYSTEM    = UTC
MEAN_ELEMENT_THEORY = SGP/SGP4

EPOCH          = 2025-12-21T20:00:01.999008
MEAN_MOTION    = 15.74362809
ECCENTRICITY   = .0001189
INCLINATION    = 53.1583
RA_OF_ASC_NODE = 4.8481
ARG_OF_PERICENTER = 128.6306
MEAN_ANOMALY   = 92.1438

EPHEMERIS_TYPE = 0
CLASSIFICATION_TYPE = U
NORAD_CAT_ID   = 66926
ELEMENT_SET_NO = 999
REV_AT_EPOCH   = 345
BSTAR          = -.3169E-2
MEAN_MOTION_DOT = -.444452E-2
MEAN_MOTION_DDOT = 0

CCSDS_OMM_VERS = 2.0
CREATION_DATE  = 
ORIGINATOR     = 

OBJECT_NAME    = STARLINK-35943
OBJECT_ID      = 2025-286C
CENTER_NAME    = EARTH
REF_FRAME      = TEME
TIME_SYSTEM    = UTC
MEAN_ELEMENT_THEORY = SGP/SGP4

EPOCH          = 2025-12-21T20:00:01.999008
MEAN_MOTION    = 15.74344663
ECCENTRICITY   = .0001244
INCLINATION    = 53.1585
RA_OF_ASC_NODE = 4.8445
ARG_OF_PERICENTER = 123.7715
MEAN_ANOMALY   = 98.9832

EPHEMERIS_TYPE = 0
CLASSIFICATION_TYPE = U
NORAD_CAT_ID   = 66927
ELEMENT_SET_NO = 999
REV_AT_EPOCH   = 345
BSTAR          = -.33994E-2
MEAN_MOTION_DOT = -.47468E-2
MEAN_MOTION_DDOT = 0

CCSDS_OMM_VERS = 2.0
CREATION_DATE  = 
ORIGINATOR     = 

OBJECT_NAME    = STARLINK-35944
OBJECT_ID      = 2025-286D
CENTER_NAME    = EARTH
REF_FRAME      = TEME
TIME_SYSTEM    = UTC
MEAN_ELEMENT_THEORY = SGP/SGP4

EPOCH          = 2025-12-21T20:00:01.999008
MEAN_MOTION    = 15.74365946
ECCENTRICITY   = .0000816
INCLINATION    = 53.1584
RA_OF_ASC_NODE = 4.8524
ARG_OF_PERICENTER = 139.0777
MEAN_ANOMALY   = 79.7872

EPHEMERIS_TYPE = 0
CLASSIFICATION_TYPE = U
NORAD_CAT_ID   = 66928
ELEMENT_SET_NO = 999
REV_AT_EPOCH   = 345
BSTAR          = -.33559E-2
MEAN_MOTION_DOT = -.469291E-2
MEAN_MOTION_DDOT = 0

